{
    "links": {
        "self": "http://www.neowsapp.com/rest/v1/neo/3829435?api_key=iIulBulltgU6a56xZRHN4H3l9WmuAYTsLGpBGhQ2"
    },
    "id": "3829435",
    "neo_reference_id": "3829435",
    "name": "(2018 RC6)",
    "designation": "2018 RC6",
    "nasa_jpl_url": "http://ssd.jpl.nasa.gov/sbdb.cgi?sstr=3829435",
    "absolute_magnitude_h": 25.3,
    "estimated_diameter": {
        "kilometers": {
            "estimated_diameter_min": 0.0231502122,
            "estimated_diameter_max": 0.0517654482
        },
        "meters": {
            "estimated_diameter_min": 23.150212221,
            "estimated_diameter_max": 51.7654482198
        },
        "miles": {
            "estimated_diameter_min": 0.0143848705,
            "estimated_diameter_max": 0.0321655483
        },
        "feet": {
            "estimated_diameter_min": 75.9521422633,
            "estimated_diameter_max": 169.8341531374
        }
    },
    "is_potentially_hazardous_asteroid": false,
    "close_approach_data": [
        {
            "close_approach_date": "2015-09-26",
            "close_approach_date_full": "2015-Sep-26 02:25",
            "epoch_date_close_approach": 1443234300000,
            "relative_velocity": {
                "kilometers_per_second": "20.7076704903",
                "kilometers_per_hour": "74547.6137649335",
                "miles_per_hour": "46320.988119661"
            },
            "miss_distance": {
                "astronomical": "0.4968201614",
                "lunar": "193.2630427846",
                "kilometers": "74323237.918496218",
                "miles": "46182318.5399870884"
            },
            "orbiting_body": "Earth"
        },
        {
            "close_approach_date": "2018-05-05",
            "close_approach_date_full": "2018-May-05 16:48",
            "epoch_date_close_approach": 1525538880000,
            "relative_velocity": {
                "kilometers_per_second": "9.5495813395",
                "kilometers_per_hour": "34378.4928221884",
                "miles_per_hour": "21361.4584983203"
            },
            "miss_distance": {
                "astronomical": "0.4445605425",
                "lunar": "172.9340510325",
                "kilometers": "66505310.244044475",
                "miles": "41324483.543884755"
            },
            "orbiting_body": "Earth"
        },
        {
            "close_approach_date": "2018-09-09",
            "close_approach_date_full": "2018-Sep-09 05:50",
            "epoch_date_close_approach": 1536472200000,
            "relative_velocity": {
                "kilometers_per_second": "12.4504553551",
                "kilometers_per_hour": "44821.6392782156",
                "miles_per_hour": "27850.4235837335"
            },
            "miss_distance": {
                "astronomical": "0.0601399428",
                "lunar": "23.3944377492",
                "kilometers": "8996807.344801836",
                "miles": "5590356.8557678968"
            },
            "orbiting_body": "Earth"
        }
    ],
    "orbital_data": {
        "orbit_id": "4",
        "orbit_determination_date": "2018-09-28 06:30:20",
        "first_observation_date": "2018-09-12",
        "last_observation_date": "2018-09-18",
        "data_arc_in_days": 6,
        "observations_used": 42,
        "orbit_uncertainty": "8",
        "minimum_orbit_intersection": ".0600979",
        "jupiter_tisserand_invariant": "4.943",
        "epoch_osculation": "2458375.5",
        "eccentricity": ".1899533953121366",
        "semi_major_axis": "1.28715608834242",
        "inclination": "22.81320961133716",
        "ascending_node_longitude": "348.2924250631584",
        "orbital_period": "533.390467335249",
        "perihelion_distance": "1.042656419065089",
        "perihelion_argument": "327.8085253755666",
        "aphelion_distance": "1.531655757619751",
        "perihelion_time": "2458340.447359067190",
        "mean_anomaly": "23.65799823692814",
        "mean_motion": ".6749276975243189",
        "equinox": "J2000",
        "orbit_class": {
            "orbit_class_type": "AMO",
            "orbit_class_description": "Near-Earth asteroid orbits similar to that of 1221 Amor",
            "orbit_class_range": "1.017 AU < q (perihelion) < 1.3 AU"
        }
    },
    "is_sentry_object": false
}